NORAD_CAT_ID,OBJECT_NAME,OBJECT_TYPE,EPOCH,MEAN_MOTION,ECCENTRICITY,INCLINATION,RA_OF_ASC_NODE,ARG_OF_PERICENTER,MEAN_ANOMALY,BSTAR,MEAN_MOTION_DOT,MEAN_MOTION_DDOT,TLE_LINE0,TLE_LINE1,TLE_LINE2,SEMIMAJOR_AXIS,PERIOD,APOGEE,PERIGEE,DECAYED
53723.0,STARLINK-4705,PAYLOAD,2022-09-23 14:00:01,15.73172373,0.0001394,53.2146,181.6342,137.4929,279.0642,0.00022792,0.00031449,0.0,0 STARLINK-4705,1 53723U 22107Z   22266.58334491  .00031449  00000-0  22792-3 0  9993,2 53723  53.2146 181.6342 0001394 137.4929 279.0642 15.73172373  3013,6727.974,91.535,350.777,348.901,0.0
53723.0,STARLINK-4705,PAYLOAD,2022-09-23 20:00:01,15.73199211,0.0001412,53.2148,180.3972,135.7507,257.5446,0.00025823,0.00035774,0.0,0 STARLINK-4705,1 53723U 22107Z   22266.83335648  .00035774  00000-0  25823-3 0  9999,2 53723  53.2148 180.3972 0001412 135.7507 257.5446 15.73199211  1307,6727.897,91.533,350.712,348.81199999999984,0.0
53723.0,STARLINK-4705,PAYLOAD,2022-09-24 06:00:00,15.732498199999998,0.0001264,53.2141,178.33700000000005,126.5038,107.9234,-7.789199999999999e-05,-0.0001155999999999,0.0,0 STARLINK-4705,1 53723U 22107Z   22267.25001157 -.00011560  00000-0 -77892-4 0  9994,2 53723  53.2141 178.3370 0001264 126.5038 107.9234 15.73249820  3128,6727.753000000002,91.53,350.469,348.76800000000014,0.0
53723.0,STARLINK-4705,PAYLOAD,2022-09-24 14:00:01,15.73237267,0.0001554999999999,53.2142,176.6853,133.8341,189.6463,0.00011349,0.00015362,0.0,0 STARLINK-4705,1 53723U 22107Z   22267.58335648  .00015362  00000-0  11349-3 0  9991,2 53723  53.2142 176.6853 0001555 133.8341 189.6463 15.73237267  1308,6727.7890000000025,91.531,350.7,348.608,0.0
53723.0,STARLINK-4705,PAYLOAD,2022-09-24 22:00:00,15.73264205,0.0001587,53.2145,175.0368,131.5379,280.8561,-0.00059424,-0.00083427,0.0,0 STARLINK-4705,1 53723U 22107Z   22267.91667824 -.00083427  00000-0 -59424-3 0  9997,2 53723  53.2145 175.0368 0001587 131.5379 280.8561 15.73264205  1301,6727.712,91.529,350.645,348.509,0.0
53723.0,STARLINK-4705,PAYLOAD,2022-09-25 14:00:01,15.72947611,0.0001418,53.2166,171.7365,123.3889,106.9589,0.0019569,0.00280343,0.0,0 STARLINK-4705,1 53723U 22107Z   22268.58334491  .00280343  00000-0  19569-2 0  9991,2 53723  53.2166 171.7365 0001418 123.3889 106.9589 15.72947611  1308,6728.615,91.548,351.434,349.526,0.0
53723.0,STARLINK-4705,PAYLOAD,2022-09-25 22:00:01,15.73206793,0.0001512,53.2152,170.0884,131.5759,187.6751,-0.00056933,-0.00079793,0.0,0 STARLINK-4705,1 53723U 22107Z   22268.91668981 -.00079793  00000-0 -56933-3 0  9996,2 53723  53.2152 170.0884 0001512 131.5759 187.6751 15.73206793  3380,6727.876,91.533,350.7580000000001,348.724,0.0
53723.0,STARLINK-4705,PAYLOAD,2022-09-26 10:00:00,15.73249665,0.0001659,53.214,167.6137,129.4103,143.1456,-0.00025937,-0.00036941,0.0,0 STARLINK-4705,1 53723U 22107Z   22269.41667824 -.00036941  00000-0 -25937-3 0  9995,2 53723  53.2140 167.6137 0001659 129.4103 143.1456 15.73249665  3464,6727.754,91.53,350.735,348.50199999999984,0.0
53723.0,STARLINK-4705,PAYLOAD,2022-09-26 14:00:01,15.73224774,0.0001655,53.2139,166.7882,136.1351,0.9131,-2.4858e-06,-9.7e-06,0.0,0 STARLINK-4705,1 53723U 22107Z   22269.58334491 -.00000970  00000-0 -24858-5 0  9990,2 53723  53.2139 166.7882 0001655 136.1351   0.9131 15.73224774  1300,6727.825,91.532,350.80300000000005,348.576,0.0
53723.0,STARLINK-4705,PAYLOAD,2022-09-26 22:00:00,15.73247098,0.0001453,53.2141,165.14,138.681,87.305,-0.00069996,-0.00097918,0.0,0 STARLINK-4705,1 53723U 22107Z   22269.91667824 -.00097918  00000-0 -69996-3 0  9994,2 53723  53.2141 165.1400 0001453 138.6810  87.3050 15.73247098  1308,6727.761,91.53,350.603,348.648,0.0
53723.0,STARLINK-4705,PAYLOAD,2022-09-27 14:00:01,15.73133614,0.0001521999999999,53.2142,161.8393,141.9144,261.9402,0.00080058,0.00112936,0.0,0 STARLINK-4705,1 53723U 22107Z   22270.58334491  .00112936  00000-0  80058-3 0  9998,2 53723  53.2142 161.8393 0001522 141.9144 261.9402 15.73133614  3645,6728.084,91.537,350.973,348.925,0.0
53723.0,STARLINK-4705,PAYLOAD,2022-09-27 22:00:01,15.73229556,0.0001401,53.214,160.1912,137.6104,355.2203,0.00034368,0.0004795,0.0,0 STARLINK-4705,1 53723U 22107Z   22270.91668981  .00047950  00000-0  34368-3 0  9995,2 53723  53.2140 160.1912 0001401 137.6104 355.2203 15.73229556  1304,6727.811,91.531,350.61800000000005,348.733,0.0
53723.0,STARLINK-4705,PAYLOAD,2022-09-28 14:00:01,15.73271011,0.0001564999999999,53.2134,156.8903,143.7367,167.0609,-0.00016101,-0.00023224,0.0,0 STARLINK-4705,1 53723U 22107Z   22271.58334491 -.00023224  00000-0 -16101-3 0  9990,2 53723  53.2134 156.8903 0001565 143.7367 167.0609 15.73271011  1301,6727.693,91.529,350.611,348.505,0.0
53723.0,STARLINK-4705,PAYLOAD,2022-09-28 22:00:00,15.73253301,0.0001533,53.2134,155.2423,133.6316,266.1133,-0.0014549,-0.00200481,0.0,0 STARLINK-4705,1 53723U 22107Z   22271.91667824 -.00200481  00000-0 -14549-2 0  9991,2 53723  53.2134 155.2423 0001533 133.6316 266.1133 15.73253301  3855,6727.743,91.53,350.64,348.577,0.0
53723.0,STARLINK-4705,PAYLOAD,2022-09-29 06:00:00,15.73109636,0.0001706,53.2133,153.5928,126.2267,2.4201,0.00011295,0.000152,0.0,0 STARLINK-4705,1 53723U 22107Z   22272.25001157  .00015200  00000-0  11295-3 0  9997,2 53723  53.2133 153.5928 0001706 126.2267   2.4201 15.73109636  3915,6728.153,91.538,351.166,348.87,0.0
53723.0,STARLINK-4705,PAYLOAD,2022-09-29 14:00:01,15.73100056,0.0001829,53.2135,151.9414,133.0951,84.3757,0.0007154,0.00100561,0.0,0 STARLINK-4705,1 53723U 22107Z   22272.58334491  .00100561  00000-0  71540-3 0  9997,2 53723  53.2135 151.9414 0001829 133.0951  84.3757 15.73100056  1304,6728.18,91.539,351.276,348.815,0.0
53723.0,STARLINK-4705,PAYLOAD,2022-09-29 20:00:01,15.73180049,0.0001781,53.2138,150.7056,129.9619,64.2207,0.00026891,0.00037256,0.0,0 STARLINK-4705,1 53723U 22107Z   22272.83335648  .00037256  00000-0  26891-3 0  9999,2 53723  53.2138 150.7056 0001781 129.9619  64.2207 15.73180049  4005,6727.9519999999975,91.534,351.015,348.619,0.0
53723.0,STARLINK-4705,PAYLOAD,2022-09-29 22:00:00,15.73174449,0.0001720999999999,53.2135,150.2937,127.9554,178.3704,0.00029264,0.00040604,0.0,0 STARLINK-4705,1 53723U 22107Z   22272.91667824  .00040604  00000-0  29264-3 0  9990,2 53723  53.2135 150.2937 0001721 127.9554 178.3704 15.73174449  1301,6727.968000000003,91.535,350.991,348.675,0.0
53723.0,STARLINK-4705,PAYLOAD,2022-09-30 14:00:01,15.7321818,0.0001732,53.2132,146.9928,139.8194,344.3878,-0.00011498,-0.00016739,0.0,0 STARLINK-4705,1 53723U 22107Z   22273.58334491 -.00016739  00000-0 -11498-3 0  9999,2 53723  53.2132 146.9928 0001732 139.8194 344.3878 15.73218180  1302,6727.843000000003,91.532,350.874,348.543,0.0
53723.0,STARLINK-4705,PAYLOAD,2022-09-30 16:00:00,15.73231017,0.0001757,53.2134,146.5806,140.0069,96.431,-0.00030209,-0.0004286,0.0,0 STARLINK-4705,1 53723U 22107Z   22273.66667824 -.00042860  00000-0 -30209-3 0  9992,2 53723  53.2134 146.5806 0001757 140.0069  96.4310 15.73231017  4131,6727.807,91.531,350.85400000000016,348.49,0.0
53723.0,STARLINK-4705,PAYLOAD,2022-09-30 22:00:00,15.731853,0.0001616,53.2132,145.3451,133.1219,80.0392,0.00041453,0.00057923,0.0,0 STARLINK-4705,1 53723U 22107Z   22273.91667824  .00057923  00000-0  41453-3 0  9997,2 53723  53.2132 145.3451 0001616 133.1219  80.0392 15.73185300  1304,6727.937,91.534,350.889,348.715,0.0
53723.0,STARLINK-4705,PAYLOAD,2022-10-01 06:00:00,15.73288204,0.0001584,53.2133,143.6952,133.6549,168.4276,-0.00053099,-0.00074765,0.0,0 STARLINK-4705,1 53723U 22107Z   22274.25001157 -.00074765  00000-0 -53099-3 0  9990,2 53723  53.2133 143.6952 0001584 133.6549 168.4276 15.73288204  4220,6727.644,91.528,350.574,348.4430000000001,0.0
53723.0,STARLINK-4705,PAYLOAD,2022-10-01 14:00:01,15.73185251,0.000185,53.2137,142.0437,135.1369,255.9449,0.00042043,0.00058763,0.0,0 STARLINK-4705,1 53723U 22107Z   22274.58334491  .00058763  00000-0  42043-3 0  9991,2 53723  53.2137 142.0437 0001850 135.1369 255.9449 15.73185251  1306,6727.937,91.534,351.047,348.55800000000005,0.0
53723.0,STARLINK-4705,PAYLOAD,2022-10-01 22:00:00,15.73223129,0.0001547,53.2138,140.3961,134.9206,345.1045,-0.00075035,-0.00104733,0.0,0 STARLINK-4705,1 53723U 22107Z   22274.91667824 -.00104733  00000-0 -75035-3 0  9995,2 53723  53.2138 140.3961 0001547 134.9206 345.1045 15.73223129  1301,6727.829000000002,91.532,350.735,348.653,0.0
53723.0,STARLINK-4705,PAYLOAD,2022-10-02 06:00:00,15.73197769,0.0001412,53.2135,138.7461,141.2257,67.7024,-0.00052674,-0.00073892,0.0,0 STARLINK-4705,1 53723U 22107Z   22275.25001157 -.00073892  00000-0 -52674-3 0  9999,2 53723  53.2135 138.7461 0001412 141.2257  67.7024 15.73197769  4387,6727.901999999999,91.533,350.717,348.81699999999995,0.0
53723.0,STARLINK-4705,PAYLOAD,2022-10-02 14:00:01,15.73123453,0.0001658,53.2138,137.0952,143.4473,154.3803,0.00075848,0.00106841,0.0,0 STARLINK-4705,1 53723U 22107Z   22275.58334491  .00106841  00000-0  75848-3 0  9992,2 53723  53.2138 137.0952 0001658 143.4473 154.3803 15.73123453  1309,6728.113,91.538,351.094,348.86300000000006,0.0
53723.0,STARLINK-4705,PAYLOAD,2022-10-02 22:00:00,15.73185589,0.0001462,53.2138,135.44799999999998,139.5401,247.1588,0.00042495,0.00059405,0.0,0 STARLINK-4705,1 53723U 22107Z   22275.91667824  .00059405  00000-0  42495-3 0  9993,2 53723  53.2138 135.4480 0001462 139.5401 247.1588 15.73185589  1306,6727.936,91.534,350.785,348.8180000000001,0.0
53723.0,STARLINK-4705,PAYLOAD,2022-10-03 06:00:00,15.73295048,0.0001457,53.2139,133.7976,139.0248,336.603,-0.00042715,-0.00060384,0.0,0 STARLINK-4705,1 53723U 22107Z   22276.25001157 -.00060384  00000-0 -42715-3 0  9997,2 53723  53.2139 133.7976 0001457 139.0248 336.6030 15.73295048  4543,6727.624,91.528,350.469,348.509,0.0
53723.0,STARLINK-4705,PAYLOAD,2022-10-03 14:00:01,15.73228314,0.0001742,53.2144,132.1465,136.9558,67.696,5.9832e-05,7.794e-05,0.0,0 STARLINK-4705,1 53723U 22107Z   22276.58334491  .00007794  00000-0  59832-4 0  9996,2 53723  53.2144 132.1465 0001742 136.9558  67.6960 15.73228314  1308,6727.814,91.532,350.851,348.50699999999995,0.0
